[{"OBJECT_NAME":"STARLINK-32664","OBJECT_ID":"2024-229N","EPOCH":"2025-08-26T20:44:11.862816","MEAN_MOTION":15.27608252,"ECCENTRICITY":0.00016618,"INCLINATION":43.0037,"RA_OF_ASC_NODE":291.13,"ARG_OF_PERICENTER":275.5743,"MEAN_ANOMALY":84.4919,"EPHEMERIS_TYPE":0,"CLASSIFICATION_TYPE":"U","NORAD_CAT_ID":62204,"ELEMENT_SET_NO":999,"REV_AT_EPOCH":4076,"BSTAR":0.00077527584,"MEAN_MOTION_DOT":0.00021151,"MEAN_MOTION_DDOT":0},{"OBJECT_NAME":"STARLINK-32660","OBJECT_ID":"2024-229P","EPOCH":"2025-08-26T19:53:19.000032","MEAN_MOTION":15.27598759,"ECCENTRICITY":9.212e-5,"INCLINATION":42.9997,"RA_OF_ASC_NODE":276.9919,"ARG_OF_PERICENTER":269.3508,"MEAN_ANOMALY":90.7238,"EPHEMERIS_TYPE":0,"CLASSIFICATION_TYPE":"U","NORAD_CAT_ID":62205,"ELEMENT_SET_NO":999,"REV_AT_EPOCH":4092,"BSTAR":0.00078681032,"MEAN_MOTION_DOT":0.00021465,"MEAN_MOTION_DDOT":0},{"OBJECT_NAME":"STARLINK-32448","OBJECT_ID":"2024-229Q","EPOCH":"2025-08-26T10:27:26.613216","MEAN_MOTION":15.27597896,"ECCENTRICITY":0.0001129,"INCLINATION":42.9997,"RA_OF_ASC_NODE":293.0755,"ARG_OF_PERICENTER":272.3757,"MEAN_ANOMALY":87.6966,"EPHEMERIS_TYPE":0,"CLASSIFICATION_TYPE":"U","NORAD_CAT_ID":62206,"ELEMENT_SET_NO":999,"REV_AT_EPOCH":4070,"BSTAR":0.00054735494,"MEAN_MOTION_DOT":0.00014838,"MEAN_MOTION_DDOT":0},{"OBJECT_NAME":"STARLINK-32430","OBJECT_ID":"2024-229R","EPOCH":"2025-08-26T20:46:45.327360","MEAN_MOTION":15.27579776,"ECCENTRICITY":0.00016084,"INCLINATION":43.0028,"RA_OF_ASC_NODE":287.6865,"ARG_OF_PERICENTER":264.0218,"MEAN_ANOMALY":96.045,"EPHEMERIS_TYPE":0,"CLASSIFICATION_TYPE":"U","NORAD_CAT_ID":62207,"ELEMENT_SET_NO":999,"REV_AT_EPOCH":4080,"BSTAR":0.00070464412,"MEAN_MOTION_DOT":0.00019179,"MEAN_MOTION_DDOT":0},{"OBJECT_NAME":"STARLINK-32675","OBJECT_ID":"2024-229S","EPOCH":"2025-08-26T20:23:50.216928","MEAN_MOTION":15.27585365,"ECCENTRICITY":0.00014829,"INCLINATION":42.9991,"RA_OF_ASC_NODE":291.0243,"ARG_OF_PERICENTER":277.7156,"MEAN_ANOMALY":82.3527,"EPHEMERIS_TYPE":0,"CLASSIFICATION_TYPE":"U","NORAD_CAT_ID":62208,"ELEMENT_SET_NO":999,"REV_AT_EPOCH":4076,"BSTAR":0.00076737073,"MEAN_MOTION_DOT":0.00020918,"MEAN_MOTION_DDOT":0},{"OBJECT_NAME":"STARLINK-32671","OBJECT_ID":"2024-229T","EPOCH":"2025-08-26T10:16:33.255552","MEAN_MOTION":15.27587791,"ECCENTRICITY":3.046e-5,"INCLINATION":42.9998,"RA_OF_ASC_NODE":293.8772,"ARG_OF_PERICENTER":256.4429,"MEAN_ANOMALY":103.6389,"EPHEMERIS_TYPE":0,"CLASSIFICATION_TYPE":"U","NORAD_CAT_ID":62209,"ELEMENT_SET_NO":999,"REV_AT_EPOCH":4069,"BSTAR":0.0010454713,"MEAN_MOTION_DOT":0.00028626,"MEAN_MOTION_DDOT":0},{"OBJECT_NAME":"STARLINK-32670","OBJECT_ID":"2024-229U","EPOCH":"2025-08-26T20:12:43.726464","MEAN_MOTION":15.27592328,"ECCENTRICITY":0.00022635,"INCLINATION":42.9989,"RA_OF_ASC_NODE":290.9656,"ARG_OF_PERICENTER":275.7944,"MEAN_ANOMALY":84.2649,"EPHEMERIS_TYPE":0,"CLASSIFICATION_TYPE":"U","NORAD_CAT_ID":62210,"ELEMENT_SET_NO":999,"REV_AT_EPOCH":4076,"BSTAR":0.00094164438,"MEAN_MOTION_DOT":0.00025751,"MEAN_MOTION_DDOT":0},{"OBJECT_NAME":"STARLINK-32642","OBJECT_ID":"2024-229V","EPOCH":"2025-08-26T20:03:28.838016","MEAN_MOTION":15.27597764,"ECCENTRICITY":0.00023749,"INCLINATION":43.0009,"RA_OF_ASC_NODE":290.9191,"ARG_OF_PERICENTER":281.9363,"MEAN_ANOMALY":78.1222,"EPHEMERIS_TYPE":0,"CLASSIFICATION_TYPE":"U","NORAD_CAT_ID":62211,"ELEMENT_SET_NO":999,"REV_AT_EPOCH":4076,"BSTAR":0.00072117204,"MEAN_MOTION_DOT":0.00019647,"MEAN_MOTION_DDOT":0},{"OBJECT_NAME":"STARLINK-32668","OBJECT_ID":"2024-229W","EPOCH":"2025-08-26T11:27:20.966400","MEAN_MOTION":15.27614523,"ECCENTRICITY":0.0001634,"INCLINATION":43.0022,"RA_OF_ASC_NODE":289.932,"ARG_OF_PERICENTER":269.0394,"MEAN_ANOMALY":91.027,"EPHEMERIS_TYPE":0,"CLASSIFICATION_TYPE":"U","NORAD_CAT_ID":62212,"ELEMENT_SET_NO":999,"REV_AT_EPOCH":4074,"BSTAR":0.0012555201,"MEAN_MOTION_DOT":0.00034485,"MEAN_MOTION_DDOT":0},{"OBJECT_NAME":"STARLINK-32669","OBJECT_ID":"2024-229X","EPOCH":"2025-08-26T21:00:50.347872","MEAN_MOTION":15.27594425,"ECCENTRICITY":0.00017947,"INCLINATION":43.0022,"RA_OF_ASC_NODE":291.213,"ARG_OF_PERICENTER":276.6315,"MEAN_ANOMALY":83.4332,"EPHEMERIS_TYPE":0,"CLASSIFICATION_TYPE":"U","NORAD_CAT_ID":62213,"ELEMENT_SET_NO":999,"REV_AT_EPOCH":4076,"BSTAR":0.00071502275,"MEAN_MOTION_DOT":0.00019475,"MEAN_MOTION_DDOT":0},{"OBJECT_NAME":"STARLINK-32666","OBJECT_ID":"2024-229Y","EPOCH":"2025-08-26T10:11:01.686912","MEAN_MOTION":15.27576921,"ECCENTRICITY":0.00013595,"INCLINATION":42.9969,"RA_OF_ASC_NODE":293.8455,"ARG_OF_PERICENTER":270.7416,"MEAN_ANOMALY":89.328,"EPHEMERIS_TYPE":0,"CLASSIFICATION_TYPE":"U","NORAD_CAT_ID":62214,"ELEMENT_SET_NO":999,"REV_AT_EPOCH":4069,"BSTAR":0.00057713816,"MEAN_MOTION_DOT":0.00015652,"MEAN_MOTION_DDOT":0},{"OBJECT_NAME":"STARLINK-32662","OBJECT_ID":"2024-229Z","EPOCH":"2025-08-26T20:49:43.999968","MEAN_MOTION":15.27597491,"ECCENTRICITY":0.00027662,"INCLINATION":43.0013,"RA_OF_ASC_NODE":291.1548,"ARG_OF_PERICENTER":269.6141,"MEAN_ANOMALY":90.4393,"EPHEMERIS_TYPE":0,"CLASSIFICATION_TYPE":"U","NORAD_CAT_ID":62215,"ELEMENT_SET_NO":999,"REV_AT_EPOCH":4076,"BSTAR":0.00078037805,"MEAN_MOTION_DOT":0.00021287,"MEAN_MOTION_DDOT":0},{"OBJECT_NAME":"STARLINK-11394 [DTC]","OBJECT_ID":"2024-231A","EPOCH":"2025-08-26T14:54:56.330784","MEAN_MOTION":15.69757725,"ECCENTRICITY":0.00022852,"INCLINATION":53.1577,"RA_OF_ASC_NODE":342.8982,"ARG_OF_PERICENTER":151.1252,"MEAN_ANOMALY":208.9893,"EPHEMERIS_TYPE":0,"CLASSIFICATION_TYPE":"U","NORAD_CAT_ID":62218,"ELEMENT_SET_NO":999,"REV_AT_EPOCH":4277,"BSTAR":0.0012881736,"MEAN_MOTION_DOT":0.00158814,"MEAN_MOTION_DDOT":0},{"OBJECT_NAME":"STARLINK-11490 [DTC]","OBJECT_ID":"2024-231B","EPOCH":"2025-08-26T13:30:19.286208","MEAN_MOTION":15.69724155,"ECCENTRICITY":0.00012192,"INCLINATION":53.1577,"RA_OF_ASC_NODE":343.2438,"ARG_OF_PERICENTER":79.9752,"MEAN_ANOMALY":280.1403,"EPHEMERIS_TYPE":0,"CLASSIFICATION_TYPE":"U","NORAD_CAT_ID":62219,"ELEMENT_SET_NO":999,"REV_AT_EPOCH":4276,"BSTAR":0.0018658261,"MEAN_MOTION_DOT":0.00232023,"MEAN_MOTION_DDOT":0},{"OBJECT_NAME":"STARLINK-11466 [DTC]","OBJECT_ID":"2024-231C","EPOCH":"2025-08-26T13:44:26.876256","MEAN_MOTION":15.69740497,"ECCENTRICITY":0.00011828,"INCLINATION":53.1573,"RA_OF_ASC_NODE":343.3082,"ARG_OF_PERICENTER":81.0333,"MEAN_ANOMALY":279.0819,"EPHEMERIS_TYPE":0,"CLASSIFICATION_TYPE":"U","NORAD_CAT_ID":62220,"ELEMENT_SET_NO":999,"REV_AT_EPOCH":4276,"BSTAR":0.0013764085,"MEAN_MOTION_DOT":0.00169832,"MEAN_MOTION_DDOT":0},{"OBJECT_NAME":"STARLINK-11468 [DTC]","OBJECT_ID":"2024-231D","EPOCH":"2025-08-26T13:58:34.463712","MEAN_MOTION":15.69763172,"ECCENTRICITY":0.00010332,"INCLINATION":53.1575,"RA_OF_ASC_NODE":343.3716,"ARG_OF_PERICENTER":84.1029,"MEAN_ANOMALY":276.0106,"EPHEMERIS_TYPE":0,"CLASSIFICATION_TYPE":"U","NORAD_CAT_ID":62221,"ELEMENT_SET_NO":999,"REV_AT_EPOCH":4276,"BSTAR":0.0010643381,"MEAN_MOTION_DOT":0.00130692,"MEAN_MOTION_DDOT":0}]
