STARLINK-32664          
1 62204U 24229N   25238.86402619  .00021151  00000+0  77528-3 0  9990
2 62204  43.0037 291.1300 0001661 275.5743  84.4919 15.27608252 40766
STARLINK-32660          
1 62205U 24229P   25238.82869213  .00021465  00000+0  78681-3 0  9993
2 62205  42.9997 276.9919 0000921 269.3508  90.7238 15.27598759 40927
STARLINK-32448          
1 62206U 24229Q   25238.43572469  .00014838  00000+0  54735-3 0  9995
2 62206  42.9997 293.0755 0001129 272.3757  87.6966 15.27597896 40707
STARLINK-32430          
1 62207U 24229R   25238.86580240  .00019179  00000+0  70464-3 0  9999
2 62207  43.0028 287.6865 0001608 264.0218  96.0450 15.27579776 40808
STARLINK-32675          
1 62208U 24229S   25238.84988677  .00020918  00000+0  76737-3 0  9996
2 62208  42.9991 291.0243 0001482 277.7156  82.3527 15.27585365 40766
STARLINK-32671          
1 62209U 24229T   25238.42816268  .00028626  00000+0  10455-2 0  9995
2 62209  42.9998 293.8772 0000304 256.4429 103.6389 15.27587791 40690
STARLINK-32670          
1 62210U 24229U   25238.84217276  .00025751  00000+0  94164-3 0  9993
2 62210  42.9989 290.9656 0002263 275.7944  84.2649 15.27592328 40766
STARLINK-32642          
1 62211U 24229V   25238.83575044  .00019647  00000+0  72117-3 0  9994
2 62211  43.0009 290.9191 0002374 281.9363  78.1222 15.27597764 40761
STARLINK-32668          
1 62212U 24229W   25238.47732600  .00034485  00000+0  12555-2 0  9994
2 62212  43.0022 289.9320 0001634 269.0394  91.0270 15.27614523 40746
STARLINK-32669          
1 62213U 24229X   25238.87558273  .00019475  00000+0  71502-3 0  9991
2 62213  43.0022 291.2130 0001794 276.6315  83.4332 15.27594425 40760
STARLINK-32666          
1 62214U 24229Y   25238.42432508  .00015652  00000+0  57714-3 0  9997
2 62214  42.9969 293.8455 0001359 270.7416  89.3280 15.27576921 40691
STARLINK-32662          
1 62215U 24229Z   25238.86787037  .00021287  00000+0  78038-3 0  9999
2 62215  43.0013 291.1548 0002766 269.6141  90.4393 15.27597491 40764
STARLINK-11394 [DTC]    
1 62218U 24231A   25238.62148531  .00158814  00000+0  12882-2 0  9990
2 62218  53.1577 342.8982 0002285 151.1252 208.9893 15.69757725 42772
STARLINK-11490 [DTC]    
1 62219U 24231B   25238.56272322  .00232023  00000+0  18658-2 0  9992
2 62219  53.1577 343.2438 0001219  79.9752 280.1403 15.69724155 42761
STARLINK-11466 [DTC]    
1 62220U 24231C   25238.57253329  .00169832  00000+0  13764-2 0  9991
2 62220  53.1573 343.3082 0001182  81.0333 279.0819 15.69740497 42768
STARLINK-11468 [DTC]    
1 62221U 24231D   25238.58234333  .00130692  00000+0  10643-2 0  9992
2 62221  53.1575 343.3716 0001033  84.1029 276.0106 15.69763172 42767
